STARLINK-32183          
1 60433U 24144J   26068.72328266 -.00002486  00000+0 -71841-4 0  9995
2 60433  53.1613 217.0151 0000926 121.7532 238.3559 15.30201447 89315
HAWK-11B                
1 62379U 24247C   26068.44730104  .00009093  00000+0  32842-3 0  9993
2 62379  45.0161 115.7610 0004690 333.0326  27.0314 15.28847070 67738
